{"type": "FeatureCollection", "features": [ {"type": "Feature", "properties": {"norad_id": 60989, "name": "SENTINEL-2C", "group": "resource", "lat": -51.75112725769454, "lon": -123.35038583697076, "alt_km": 796.5498812657661, "timestamp": "2025-12-21T07:34:34.198418+00:00", "meta": {"OBJECT_NAME": "SENTINEL-2C", "OBJECT_ID": "2024-157A", "EPOCH": "2025-12-20T22:06:04.711104", "MEAN_MOTION": 14.30820541, "ECCENTRICITY": 0.00012041, "INCLINATION": 98.5673, "RA_OF_ASC_NODE": 67.2853, "ARG_OF_PERICENTER": 95.6595, "MEAN_ANOMALY": 264.4726, "EPHEMERIS_TYPE": 0, "CLASSIFICATION_TYPE": "U", "NORAD_CAT_ID": 60989, "ELEMENT_SET_NO": 999, "REV_AT_EPOCH": 6749, "BSTAR": 5.7325593e-05, "MEAN_MOTION_DOT": 1.07e-06, "MEAN_MOTION_DDOT": 0}, "tle": {"line1": "1 60989U 24157A   25354.92088786  .00000107  00000+0  57326-4 0  9992", "line2": "2 60989  98.5673  67.2853 0001204  95.6595 264.4726 14.30820541 67494"}}, "geometry": {"type": "Point", "coordinates": [-123.35038583697076, -51.75112725769454]}}, {"type": "Feature", "properties": {"norad_id": 61735, "name": "IONOSFERA-M 1", "group": "resource", "lat": -67.47173740920094, "lon": 23.328882823514906, "alt_km": 823.6171695535913, "timestamp": "2025-12-21T07:34:34.198427+00:00", "meta": {"OBJECT_NAME": "IONOSFERA-M 1", "OBJECT_ID": "2024-199A", "EPOCH": "2025-12-20T21:58:09.848928", "MEAN_MOTION": 14.22715727, "ECCENTRICITY": 5.655e-05, "INCLINATION": 98.7398, "RA_OF_ASC_NODE": 224.7007, "ARG_OF_PERICENTER": 11.5563, "MEAN_ANOMALY": 348.5628, "EPHEMERIS_TYPE": 0, "CLASSIFICATION_TYPE": "U", "NORAD_CAT_ID": 61735, "ELEMENT_SET_NO": 999, "REV_AT_EPOCH": 10235, "BSTAR": 4.334007e-05, "MEAN_MOTION_DOT": 5.3e-07, "MEAN_MOTION_DDOT": 0}, "tle": {"line1": "1 61735U 24199A   25354.91539177  .00000053  00000+0  43340-4 0  9993", "line2": "2 61735  98.7398 224.7007 0000565  11.5563 348.5628 14.22715727102352"}}, "geometry": {"type": "Point", "coordinates": [23.328882823514906, -67.47173740920094]}}, {"type": "Feature", "properties": {"norad_id": 61736, "name": "IONOSFERA-M 2", "group": "resource", "lat": 69.87592628986434, "lon": -159.81257452343084, "alt_km": 808.2121567095382, "timestamp": "2025-12-21T07:34:34.198436+00:00", "meta": {"OBJECT_NAME": "IONOSFERA-M 2", "OBJECT_ID": "2024-199B", "EPOCH": "2025-12-20T22:48:02.292192", "MEAN_MOTION": 14.22717902, "ECCENTRICITY": 0.00018151, "INCLINATION": 98.7397, "RA_OF_ASC_NODE": 224.6474, "ARG_OF_PERICENTER": 100.0938, "MEAN_ANOMALY": 260.0445, "EPHEMERIS_TYPE": 0, "CLASSIFICATION_TYPE": "U", "NORAD_CAT_ID": 61736, "ELEMENT_SET_NO": 999, "REV_AT_EPOCH": 10548, "BSTAR": 4.432605e-05, "MEAN_MOTION_DOT": 5.5e-07, "MEAN_MOTION_DDOT": 0}, "tle": {"line1": "1 61736U 24199B   25354.95002653  .00000055  00000+0  44326-4 0  9999", "line2": "2 61736  98.7397 224.6474 0001815 100.0938 260.0445 14.22717902105487"}}, "geometry": {"type": "Point", "coordinates": [-159.81257452343084, 69.87592628986434]}}, {"type": "Feature", "properties": {"norad_id": 63772, "name": "BIOMASS", "group": "resource", "lat": -25.329164448868163, "lon": -3.650368750592181, "alt_km": 675.031181000073, "timestamp": "2025-12-21T07:34:34.198446+00:00", "meta": {"OBJECT_NAME": "BIOMASS", "OBJECT_ID": "2025-090A", "EPOCH": "2025-12-20T11:00:22.690080", "MEAN_MOTION": 14.67537273, "ECCENTRICITY": 0.00011035, "INCLINATION": 98.07, "RA_OF_ASC_NODE": 179.356, "ARG_OF_PERICENTER": 81.418, "MEAN_ANOMALY": 278.715, "EPHEMERIS_TYPE": 0, "CLASSIFICATION_TYPE": "U", "NORAD_CAT_ID": 63772, "ELEMENT_SET_NO": 999, "REV_AT_EPOCH": 3447, "BSTAR": 0.0001671094, "MEAN_MOTION_DOT": 9e-06, "MEAN_MOTION_DDOT": 0}, "tle": {"line1": "1 63772U 25090A   25354.45859595  .00000900  00000+0  16711-3 0  9997", "line2": "2 63772  98.0700 179.3560 0001103  81.4180 278.7150 14.67537273 34472"}}, "geometry": {"type": "Point", "coordinates": [-3.650368750592181, -25.329164448868163]}}, {"type": "Feature", "properties": {"norad_id": 64694, "name": "GOSAT-GW (IBUKI GW)", "group": "resource", "lat": 54.887643720740435, "lon": -80.92872443586491, "alt_km": 662.7245671434057, "timestamp": "2025-12-21T07:34:34.198455+00:00", "meta": {"OBJECT_NAME": "GOSAT-GW (IBUKI GW)", "OBJECT_ID": "2025-141A", "EPOCH": "2025-12-20T21:30:18.764064", "MEAN_MOTION": 14.67566156, "ECCENTRICITY": 0.00014552, "INCLINATION": 98.0435, "RA_OF_ASC_NODE": 290.2613, "ARG_OF_PERICENTER": 83.9366, "MEAN_ANOMALY": 276.2005, "EPHEMERIS_TYPE": 0, "CLASSIFICATION_TYPE": "U", "NORAD_CAT_ID": 64694, "ELEMENT_SET_NO": 999, "REV_AT_EPOCH": 2569, "BSTAR": 0.00010398683, "MEAN_MOTION_DOT": 5.42e-06, "MEAN_MOTION_DDOT": 0}, "tle": {"line1": "1 64694U 25141A   25354.89605051  .00000542  00000+0  10399-3 0  9990", "line2": "2 64694  98.0435 290.2613 0001455  83.9366 276.2005 14.67566156 25694"}}, "geometry": {"type": "Point", "coordinates": [-80.92872443586491, 54.887643720740435]}}, {"type": "Feature", "properties": {"norad_id": 64876, "name": "IONOSFERA-M 3", "group": "resource", "lat": 74.1778515111446, "lon": -75.2493249594841, "alt_km": 812.139068960706, "timestamp": "2025-12-21T07:34:34.198464+00:00", "meta": {"OBJECT_NAME": "IONOSFERA-M 3", "OBJECT_ID": "2025-155A", "EPOCH": "2025-12-20T22:46:12.313632", "MEAN_MOTION": 14.21442874, "ECCENTRICITY": 0.00019984, "INCLINATION": 98.5794, "RA_OF_ASC_NODE": 316.5829, "ARG_OF_PERICENTER": 46.7656, "MEAN_ANOMALY": 313.3688, "EPHEMERIS_TYPE": 0, "CLASSIFICATION_TYPE": "U", "NORAD_CAT_ID": 64876, "ELEMENT_SET_NO": 999, "REV_AT_EPOCH": 2108, "BSTAR": 3.8868078e-05, "MEAN_MOTION_DOT": 4.2e-07, "MEAN_MOTION_DDOT": 0}, "tle": {"line1": "1 64876U 25155A   25354.94875363  .00000042  00000+0  38868-4 0  9995", "line2": "2 64876  98.5794 316.5829 0001998  46.7656 313.3688 14.21442874 21080"}}, "geometry": {"type": "Point", "coordinates": [-75.2493249594841, 74.1778515111446]}}, {"type": "Feature", "properties": {"norad_id": 64877, "name": "IONOSFERA-M 4", "group": "resource", "lat": -74.78071250939344, "lon": 103.15566948444129, "alt_km": 828.7011780831826, "timestamp": "2025-12-21T07:34:34.198473+00:00", "meta": {"OBJECT_NAME": "IONOSFERA-M 4", "OBJECT_ID": "2025-155B", "EPOCH": "2025-12-20T21:55:19.710912", "MEAN_MOTION": 14.21443981, "ECCENTRICITY": 0.00014027, "INCLINATION": 98.5792, "RA_OF_ASC_NODE": 316.4679, "ARG_OF_PERICENTER": 55.4709, "MEAN_ANOMALY": 304.6601, "EPHEMERIS_TYPE": 0, "CLASSIFICATION_TYPE": "U", "NORAD_CAT_ID": 64877, "ELEMENT_SET_NO": 999, "REV_AT_EPOCH": 2107, "BSTAR": 3.558098e-05, "MEAN_MOTION_DOT": 3.5e-07, "MEAN_MOTION_DDOT": 0}, "tle": {"line1": "1 64877U 25155B   25354.91342258  .00000035  00000+0  35581-4 0  9996", "line2": "2 64877  98.5792 316.4679 0001402  55.4709 304.6601 14.21443981 21074"}}, "geometry": {"type": "Point", "coordinates": [103.15566948444129, -74.78071250939344]}}, {"type": "Feature", "properties": {"norad_id": 64899, "name": "MICROCARB", "group": "resource", "lat": 7.4157903076223715, "lon": -108.42764104616953, "alt_km": 649.1083689149827, "timestamp": "2025-12-21T07:34:34.198482+00:00", "meta": {"OBJECT_NAME": "MICROCARB", "OBJECT_ID": "2025-156A", "EPOCH": "2025-12-20T22:38:25.178208", "MEAN_MOTION": 14.72069142, "ECCENTRICITY": 0.00175331, "INCLINATION": 98.0017, "RA_OF_ASC_NODE": 70.157, "ARG_OF_PERICENTER": 120.0864, "MEAN_ANOMALY": 240.2085, "EPHEMERIS_TYPE": 0, "CLASSIFICATION_TYPE": "U", "NORAD_CAT_ID": 64899, "ELEMENT_SET_NO": 999, "REV_AT_EPOCH": 2174, "BSTAR": 8.5365233e-05, "MEAN_MOTION_DOT": 4.88e-06, "MEAN_MOTION_DDOT": 0}, "tle": {"line1": "1 64899U 25156A   25354.94334697  .00000488  00000+0  85365-4 0  9999", "line2": "2 64899  98.0017  70.1570 0017533 120.0864 240.2085 14.72069142 21744"}}, "geometry": {"type": "Point", "coordinates": [-108.42764104616953, 7.4157903076223715]}}, {"type": "Feature", "properties": {"norad_id": 64900, "name": "CO3D 3", "group": "resource", "lat": -75.37496755907544, "lon": -138.46657698476875, "alt_km": 513.4783852835062, "timestamp": "2025-12-21T07:34:34.198491+00:00", "meta": {"OBJECT_NAME": "CO3D 3", "OBJECT_ID": "2025-156B", "EPOCH": "2025-12-20T22:32:55.709952", "MEAN_MOTION": 15.20206053, "ECCENTRICITY": 0.00013463, "INCLINATION": 97.4344, "RA_OF_ASC_NODE": 71.1894, "ARG_OF_PERICENTER": 79.6025, "MEAN_ANOMALY": 280.5362, "EPHEMERIS_TYPE": 0, "CLASSIFICATION_TYPE": "U", "NORAD_CAT_ID": 64900, "ELEMENT_SET_NO": 999, "REV_AT_EPOCH": 2245, "BSTAR": 0.00017978818, "MEAN_MOTION_DOT": 3.827e-05, "MEAN_MOTION_DDOT": 0}, "tle": {"line1": "1 64900U 25156B   25354.93953368  .00003827  00000+0  17979-3 0  9998", "line2": "2 64900  97.4344  71.1894 0001346  79.6025 280.5362 15.20206053 22458"}}, "geometry": {"type": "Point", "coordinates": [-138.46657698476875, -75.37496755907544]}}, {"type": "Feature", "properties": {"norad_id": 64901, "name": "CO3D 4", "group": "resource", "lat": -74.63775661241206, "lon": -136.81742892964198, "alt_km": 512.5762428381113, "timestamp": "2025-12-21T07:34:34.198500+00:00", "meta": {"OBJECT_NAME": "CO3D 4", "OBJECT_ID": "2025-156C", "EPOCH": "2025-12-20T22:33:09.019872", "MEAN_MOTION": 15.20196689, "ECCENTRICITY": 0.00012337, "INCLINATION": 97.4343, "RA_OF_ASC_NODE": 71.1896, "ARG_OF_PERICENTER": 167.763, "MEAN_ANOMALY": 192.3635, "EPHEMERIS_TYPE": 0, "CLASSIFICATION_TYPE": "U", "NORAD_CAT_ID": 64901, "ELEMENT_SET_NO": 999, "REV_AT_EPOCH": 2245, "BSTAR": 0.00016645358, "MEAN_MOTION_DOT": 3.537e-05, "MEAN_MOTION_DDOT": 0}, "tle": {"line1": "1 64901U 25156C   25354.93968773  .00003537  00000+0  16645-3 0  9992", "line2": "2 64901  97.4343  71.1896 0001233 167.7630 192.3635 15.20196689 22452"}}, "geometry": {"type": "Point", "coordinates": [-136.81742892964198, -74.63775661241206]}}]}